BEIDOU-2 IGSO-1 (C06)   
1 36828U 10036A   25017.82295219 -.00000096  00000+0  00000+0 0  9994
2 36828  54.2673 167.6206 0043771 206.9656 146.5047  1.00268684 52920
BEIDOU-2 G4 (C04)       
1 37210U 10057A   25017.71155031 -.00000108  00000+0  00000+0 0  9992
2 37210   2.3683  70.3800 0009164 196.2428 266.8683  1.00270928 52125
BEIDOU-2 IGSO-2 (C07)   
1 37256U 10068A   25017.62352182 -.00000187  00000+0  00000+0 0  9997
2 37256  48.4823 278.1990 0038948 214.4718 316.9161  1.00284681 51619
BEIDOU-2 IGSO-3 (C08)   
1 37384U 11013A   25017.76267296 -.00000157  00000+0  00000+0 0  9993
2 37384  61.6646  45.0442 0029567 185.3678 266.2287  1.00255662 50490
BEIDOU-2 IGSO-4 (C09)   
1 37763U 11038A   25017.31797609 -.00000026  00000+0  00000+0 0  9993
2 37763  54.5715 170.2812 0132283 228.6723 287.8490  1.00262996 49472
BEIDOU-2 IGSO-5 (C10)   
1 37948U 11073A   25017.68799410 -.00000177  00000+0  00000+0 0  9996
2 37948  48.6180 277.8964 0101035 220.6189 322.2486  1.00284167 47963
BEIDOU-2 G5 (C05)       
1 38091U 12008A   25017.90613978  .00000062  00000+0  00000+0 0  9996
2 38091   2.2898  71.1882 0013258 235.2756 196.0487  1.00275149 47205
BEIDOU-2 M3 (C11)       
1 38250U 12018A   25017.17629842 -.00000095  00000+0  00000+0 0  9997
2 38250  56.1849 322.2053 0024131 271.7281  88.0019  1.86233717 86333
BEIDOU-2 M4 (C12)       
1 38251U 12018B   25017.10720945 -.00000095  00000+0  00000+0 0  9997
2 38251  56.0897 321.4630 0015098 276.8084  83.0269  1.86232184 86336
BEIDOU-2 M6 (C14)       
1 38775U 12050B   25017.89099184 -.00000043  00000+0  00000+0 0  9997
2 38775  56.0903  79.9963 0012364 334.7179  25.2866  1.86231034 84063
BEIDOU-2 G6 (C02)       
1 38953U 12059A   25017.76793575 -.00000171  00000+0  00000+0 0  9997
2 38953   3.1088  78.7591 0009150 289.2584 109.8555  1.00271275 44747
BEIDOU-3S IGSO-1S (C31) 
1 40549U 15019A   25017.63352264 -.00000168  00000+0  00000+0 0  9998
2 40549  50.1710 301.6482 0033794 197.0343 300.8404  1.00256804 35907
BEIDOU-3S M2S (C58)     
1 40748U 15037A   25017.30850516 -.00000095  00000+0  00000+0 0  9995
2 40748  55.3150 319.7424 0011452 268.7761  91.1027  1.86229193 64511
BEIDOU-3S M1S (C57)     
1 40749U 15037B   25017.04523338 -.00000094  00000+0  00000+0 0  9995
2 40749  55.3179 319.7382 0004671 337.5197  22.4689  1.86227612 64514
BEIDOU-3S IGSO-2S (C56) 
1 40938U 15053A   25017.64216069 -.00000098  00000+0  00000+0 0  9993
2 40938  50.0203 264.8917 0051573 187.5043 350.4160  1.00257306 34181
BEIDOU-2 IGSO-6 (C13)   
1 41434U 16021A   25017.95572521 -.00000147  00000+0  00000+0 0  9998
2 41434  59.4939  43.1838 0055243 228.7307 286.6553  1.00273416 32310
BEIDOU-2 G7 (C03)       
1 41586U 16037A   25017.77306170 -.00000349  00000+0  00000+0 0  9992
2 41586   1.8946  67.9341 0007999 343.5625  94.7188  1.00275928  1727
BEIDOU-3 M1 (C19)       
1 43001U 17069A   25017.65680301 -.00000042  00000+0  00000+0 0  9990
2 43001  56.2397  80.1282 0010720 298.2233  61.7336  1.86231335 49003
BEIDOU-3 M2 (C20)       
1 43002U 17069B   25017.59446912 -.00000042  00000+0  00000+0 0  9992
2 43002  56.2386  80.1665 0007901 319.3945  40.6117  1.86230982 48996
BEIDOU-3 M7 (C27)       
1 43107U 18003A   25016.26764282 -.00000095  00000+0  00000+0 0  9991
2 43107  54.7744 320.2752 0003487  54.4309 305.6079  1.86232400 47733
BEIDOU-3 M8 (C28)       
1 43108U 18003B   25017.28374720 -.00000096  00000+0  00000+0 0  9990
2 43108  54.7665 320.2246 0004450 279.1793  80.7797  1.86230939 47753
BEIDOU-3 M4 (C22)       
1 43207U 18018A   25017.72494394 -.00000042  00000+0  00000+0 0  9996
2 43207  56.1986  80.2077 0004910 345.1815  14.8692  1.86231261 47144
BEIDOU-3 M3 (C21)       
1 43208U 18018B   25017.25455225 -.00000040  00000+0  00000+0 0  9993
2 43208  56.1976  80.2276 0008122 308.0869  51.9051  1.86231422 47130
BEIDOU-3 M9 (C29)       
1 43245U 18029A   25017.47382748 -.00000094  00000+0  00000+0 0  9998
2 43245  54.6499 317.9200 0001648 303.7128  56.2843  1.86232736 46299
BEIDOU-3 M10 (C30)      
1 43246U 18029B   25017.40357218 -.00000094  00000+0  00000+0 0  9996
2 43246  54.6475 317.9502 0004799 359.4247   0.5872  1.86228969 46274
BEIDOU-2 IGSO-7 (C16)   
1 43539U 18057A   25017.82798807 -.00000094  00000+0  00000+0 0  9991
2 43539  55.1598 167.5148 0079907 232.2539 124.6884  1.00246523 23965
BEIDOU-3 M5 (C23)       
1 43581U 18062A   25017.09250313  .00000051  00000+0  00000+0 0  9990
2 43581  54.1121 199.8518 0001613 352.5461   7.4443  1.86228857 44024
BEIDOU-3 M6 (C24)       
1 43582U 18062B   25016.95721560  .00000050  00000+0  00000+0 0  9991
2 43582  54.1114 199.8456 0007357  45.3299 314.7231  1.86229763 44021
BEIDOU-3 M12 (C26)      
1 43602U 18067A   25016.89161777  .00000049  00000+0  00000+0 0  9998
2 43602  54.2042 198.5491 0008614  37.2856 322.7648  1.86227850 43504
BEIDOU-3 M11 (C25)      
1 43603U 18067B   25017.02524009  .00000050  00000+0  00000+0 0  9998
2 43603  54.2015 198.5093 0005195  34.2428 325.7810  1.86227341 43538
BEIDOU-3 M13 (C32)      
1 43622U 18072A   25017.52260305 -.00000042  00000+0  00000+0 0  9998
2 43622  56.1703  79.7396 0007408 293.4452  66.5423  1.86231069 43054
BEIDOU-3 M14 (C33)      
1 43623U 18072B   25017.38807687 -.00000041  00000+0  00000+0 0  9992
2 43623  56.1720  79.7375 0004631 315.9687  44.0599  1.86231067 43048
BEIDOU-3 M16 (C35)      
1 43647U 18078A   25017.54922528 -.00000095  00000+0  00000+0 0  9993
2 43647  54.5464 317.9985 0007785  13.4229 346.6104  1.86232421 42564
BEIDOU-3 M15 (C34)      
1 43648U 18078B   25017.14145801 -.00000094  00000+0  00000+0 0  9990
2 43648  54.5424 318.0148 0004595  14.4602 345.5647  1.86232159 42564
BEIDOU-3 G1 (C59)       
1 43683U 18085A   25017.70755380 -.00000274  00000+0  00000+0 0  9998
2 43683   2.7266 102.2653 0000929  59.0016 350.8657  1.00271718 22891
BEIDOU-3 M17 (C36)      
1 43706U 18093A   25017.29475417  .00000053  00000+0  00000+0 0  9991
2 43706  54.1952 199.7992 0006077 299.5182  60.4137  1.86228532 41935
BEIDOU-3 M18 (C37)      
1 43707U 18093B   25017.15834513  .00000052  00000+0  00000+0 0  9992
2 43707  54.1960 199.7955 0005942 344.0530  15.9209  1.86230021 41927
BEIDOU-3 IGSO-1 (C38)   
1 44204U 19023A   25017.75774125 -.00000201  00000+0  00000+0 0  9994
2 44204  57.9579  42.9803 0023686 225.5167 240.1683  1.00290544  2042
BEIDOU-2 G8 (C01)       
1 44231U 19027A   25017.67889072 -.00000243  00000+0  00000+0 0  9993
2 44231   2.0124  74.8890 0004887 210.7259 220.6306  1.00272683 20914
BEIDOU-3 IGSO-2 (C39)   
1 44337U 19035A   25017.82931329 -.00000110  00000+0  00000+0 0  9992
2 44337  55.1987 163.3853 0035689 197.9550 172.9247  1.00272940 20508
BEIDOU-3 M24 (C46)      
1 44542U 19061A   25015.61773312  .00000045  00000+0  00000+0 0  9996
2 44542  54.4232 200.1847 0008937  19.9600 340.0728  1.86229222 36158
BEIDOU-3 M23 (C45)      
1 44543U 19061B   25017.82113853  .00000059  00000+0  00000+0 0  9995
2 44543  54.4215 200.0787 0005534  19.1617 290.7716  1.86229571 36191
BEIDOU-3 IGSO-3 (C40)   
1 44709U 19073A   25017.14174678 -.00000180  00000+0  00000+0 0  9995
2 44709  55.6840 286.4540 0041102 183.7576 176.2911  1.00291800 19286
BEIDOU-3 M22 (C44)      
1 44793U 19078A   25016.53557973 -.00000094  00000+0  00000+0 0  9992
2 44793  54.3946 317.9396 0006589  17.6064 342.4267  1.86231987 35023
BEIDOU-3 M21 (C43)      
1 44794U 19078B   25016.12860198 -.00000093  00000+0  00000+0 0  9993
2 44794  54.3684 317.9254 0004777   7.6095 352.4068  1.86227715 35020
BEIDOU-3 M19 (C41)      
1 44864U 19090A   25016.41076885 -.00000038  00000+0  00000+0 0  9998
2 44864  56.1036  79.9358 0018888 281.5680  99.9072  1.86231556 34610
BEIDOU-3 M20 (C42)      
1 44865U 19090B   25017.43999333 -.00000041  00000+0  00000+0 0  9998
2 44865  56.1062  79.9352 0016306 293.4417 147.7676  1.86231577 34612
BEIDOU-3 G2 (C60)       
1 45344U 20017A   25017.76715383 -.00000136  00000+0  00000+0 0  9994
2 45344   2.6205  36.8238 0003198 266.5727 170.2211  1.00272830 18098
BEIDOU-3 G3 (C61)       
1 45807U 20040A   25017.77306170 -.00000349  00000+0  00000+0 0  9991
2 45807   1.2126  59.3007 0003693 306.0787 140.8955  1.00272265 16907
BEIDOU-3 G4 (C62)       
1 56564U 23066A   25017.71155031 -.00000105  00000+0  00000+0 0  9996
2 56564   1.5895 289.5333 0002615 264.5341 339.3959  1.00273404  6220
BEIDOU-3 M28 (C50)      
1 58654U 23207A   25017.28494035 -.00000043  00000+0  00000+0 0  9998
2 58654  55.2905  79.7739 0003726 272.9207  87.1012  1.86232057  7230
BEIDOU-3 M26 (C48)      
1 58655U 23207B   25017.62136778 -.00000044  00000+0  00000+0 0  9995
2 58655  55.2928  79.7482 0004846 259.5703 100.4394  1.86231518  7229
